[{"OBJECT_NAME":"STARLINK-30752","OBJECT_ID":"2023-166X","EPOCH":"2026-03-09T16:51:58.651488","MEAN_MOTION":15.30185387,"ECCENTRICITY":0.00010747,"INCLINATION":53.1596,"RA_OF_ASC_NODE":219.3766,"ARG_OF_PERICENTER":78.3116,"MEAN_ANOMALY":281.8005,"EPHEMERIS_TYPE":0,"CLASSIFICATION_TYPE":"U","NORAD_CAT_ID":58171,"ELEMENT_SET_NO":999,"REV_AT_EPOCH":13318,"BSTAR":5.7396905e-5,"MEAN_MOTION_DOT":1.34e-5,"MEAN_MOTION_DDOT":0},{"OBJECT_NAME":"LIZZIESAT-2 (LS-2)","OBJECT_ID":"2024-247G","EPOCH":"2026-03-09T11:47:37.199328","MEAN_MOTION":15.28222796,"ECCENTRICITY":0.00040927,"INCLINATION":44.9909,"RA_OF_ASC_NODE":117.0823,"ARG_OF_PERICENTER":327.5136,"MEAN_ANOMALY":32.5495,"EPHEMERIS_TYPE":0,"CLASSIFICATION_TYPE":"U","NORAD_CAT_ID":62383,"ELEMENT_SET_NO":999,"REV_AT_EPOCH":6771,"BSTAR":0.00034516624,"MEAN_MOTION_DOT":9.388e-5,"MEAN_MOTION_DDOT":0}]
